NESS                    
1 58020U 23155E   26068.76452457  .00019469  00000+0  74047-3 0  9996
2 58020  97.5941 152.6141 0006891 179.8776 180.2465 15.26794015133307
STARLINK-34234          
1 64248U 25119R   26068.06745975  .00016564  00000+0  60997-3 0  9992
2 64248  43.0018 310.6096 0001591 264.1846  95.8825 15.27585996 44073
